OBJECT B                
1 51825U 22019B   26022.49785054  .00051004  00000+0  72693-3 0  9998
2 51825  97.3615 108.2628 0006862 303.6451  56.4149 15.56139304216976
